[{"OBJECT_NAME":"FENGYUN 1C DEB","OBJECT_ID":"1999-025KF","EPOCH":"2026-03-05T08:05:17.618208","MEAN_MOTION":14.54382782,"ECCENTRICITY":0.0034888,"INCLINATION":98.9188,"RA_OF_ASC_NODE":201.5027,"ARG_OF_PERICENTER":280.028,"MEAN_ANOMALY":112.5303,"EPHEMERIS_TYPE":0,"CLASSIFICATION_TYPE":"U","NORAD_CAT_ID":29957,"ELEMENT_SET_NO":999,"REV_AT_EPOCH":98691,"BSTAR":0.005068,"MEAN_MOTION_DOT":0.00021728,"MEAN_MOTION_DDOT":0},{"OBJECT_NAME":"FENGYUN 1C DEB","OBJECT_ID":"1999-025KG","EPOCH":"2026-03-05T00:50:00.354912","MEAN_MOTION":14.14571573,"ECCENTRICITY":0.00559148,"INCLINATION":98.666,"RA_OF_ASC_NODE":80.9862,"ARG_OF_PERICENTER":97.0693,"MEAN_ANOMALY":263.6844,"EPHEMERIS_TYPE":0,"CLASSIFICATION_TYPE":"U","NORAD_CAT_ID":29958,"ELEMENT_SET_NO":999,"REV_AT_EPOCH":98614,"BSTAR":0.00034999376,"MEAN_MOTION_DOT":6.4e-6,"MEAN_MOTION_DDOT":0},{"OBJECT_NAME":"FENGYUN 1C DEB","OBJECT_ID":"1999-025KH","EPOCH":"2026-03-05T15:08:38.609088","MEAN_MOTION":14.06064755,"ECCENTRICITY":0.0043365,"INCLINATION":98.7982,"RA_OF_ASC_NODE":97.9839,"ARG_OF_PERICENTER":94.7022,"MEAN_ANOMALY":32.4574,"EPHEMERIS_TYPE":0,"CLASSIFICATION_TYPE":"U","NORAD_CAT_ID":29959,"ELEMENT_SET_NO":999,"REV_AT_EPOCH":98105,"BSTAR":0.00021217,"MEAN_MOTION_DOT":3.09e-6,"MEAN_MOTION_DDOT":0},{"OBJECT_NAME":"FENGYUN 1C DEB","OBJECT_ID":"1999-025KJ","EPOCH":"2026-03-05T10:25:54.222240","MEAN_MOTION":14.16561971,"ECCENTRICITY":0.009271,"INCLINATION":98.6248,"RA_OF_ASC_NODE":52.3978,"ARG_OF_PERICENTER":48.898,"MEAN_ANOMALY":103.656,"EPHEMERIS_TYPE":0,"CLASSIFICATION_TYPE":"U","NORAD_CAT_ID":29960,"ELEMENT_SET_NO":999,"REV_AT_EPOCH":98625,"BSTAR":0.00063228,"MEAN_MOTION_DOT":1.272e-5,"MEAN_MOTION_DDOT":0},{"OBJECT_NAME":"FENGYUN 1C DEB","OBJECT_ID":"1999-025KK","EPOCH":"2026-03-05T15:32:16.136736","MEAN_MOTION":14.26298021,"ECCENTRICITY":0.0075683,"INCLINATION":98.9415,"RA_OF_ASC_NODE":318.8048,"ARG_OF_PERICENTER":64.9155,"MEAN_ANOMALY":295.9854,"EPHEMERIS_TYPE":0,"CLASSIFICATION_TYPE":"U","NORAD_CAT_ID":29961,"ELEMENT_SET_NO":999,"REV_AT_EPOCH":99491,"BSTAR":0.00022198,"MEAN_MOTION_DOT":5.03e-6,"MEAN_MOTION_DDOT":0},{"OBJECT_NAME":"FENGYUN 1C DEB","OBJECT_ID":"1999-025KL","EPOCH":"2026-03-05T14:57:58.059360","MEAN_MOTION":14.07220529,"ECCENTRICITY":0.0109982,"INCLINATION":98.7691,"RA_OF_ASC_NODE":75.3324,"ARG_OF_PERICENTER":348.7378,"MEAN_ANOMALY":137.5915,"EPHEMERIS_TYPE":0,"CLASSIFICATION_TYPE":"U","NORAD_CAT_ID":29962,"ELEMENT_SET_NO":999,"REV_AT_EPOCH":98163,"BSTAR":0.00034104,"MEAN_MOTION_DOT":5.61e-6,"MEAN_MOTION_DDOT":0},{"OBJECT_NAME":"FENGYUN 1C DEB","OBJECT_ID":"1999-025KM","EPOCH":"2026-03-05T13:06:12.156192","MEAN_MOTION":14.29745006,"ECCENTRICITY":0.0052414,"INCLINATION":98.9928,"RA_OF_ASC_NODE":316.2104,"ARG_OF_PERICENTER":61.2629,"MEAN_ANOMALY":57.3417,"EPHEMERIS_TYPE":0,"CLASSIFICATION_TYPE":"U","NORAD_CAT_ID":29963,"ELEMENT_SET_NO":999,"REV_AT_EPOCH":99326,"BSTAR":0.00063854,"MEAN_MOTION_DOT":1.617e-5,"MEAN_MOTION_DDOT":0},{"OBJECT_NAME":"FENGYUN 1C DEB","OBJECT_ID":"1999-025KN","EPOCH":"2026-03-05T13:15:23.278464","MEAN_MOTION":14.0300697,"ECCENTRICITY":0.0131392,"INCLINATION":98.3717,"RA_OF_ASC_NODE":265.4649,"ARG_OF_PERICENTER":35.0363,"MEAN_ANOMALY":325.9362,"EPHEMERIS_TYPE":0,"CLASSIFICATION_TYPE":"U","NORAD_CAT_ID":29964,"ELEMENT_SET_NO":999,"REV_AT_EPOCH":97478,"BSTAR":0.0010924,"MEAN_MOTION_DOT":1.792e-5,"MEAN_MOTION_DDOT":0},{"OBJECT_NAME":"FENGYUN 1C DEB","OBJECT_ID":"1999-025KP","EPOCH":"2026-03-05T13:03:43.217280","MEAN_MOTION":13.95830933,"ECCENTRICITY":0.0144803,"INCLINATION":98.9696,"RA_OF_ASC_NODE":61.9798,"ARG_OF_PERICENTER":200.0229,"MEAN_ANOMALY":287.6732,"EPHEMERIS_TYPE":0,"CLASSIFICATION_TYPE":"U","NORAD_CAT_ID":29965,"ELEMENT_SET_NO":999,"REV_AT_EPOCH":97431,"BSTAR":-1.1841e-5,"MEAN_MOTION_DOT":-6.1e-7,"MEAN_MOTION_DDOT":0},{"OBJECT_NAME":"FENGYUN 1C DEB","OBJECT_ID":"1999-025KQ","EPOCH":"2026-03-05T13:26:33.260352","MEAN_MOTION":14.25929232,"ECCENTRICITY":0.0040096,"INCLINATION":99.4878,"RA_OF_ASC_NODE":283.3307,"ARG_OF_PERICENTER":108.7941,"MEAN_ANOMALY":251.7592,"EPHEMERIS_TYPE":0,"CLASSIFICATION_TYPE":"U","NORAD_CAT_ID":29966,"ELEMENT_SET_NO":999,"REV_AT_EPOCH":99223,"BSTAR":0.00043146,"MEAN_MOTION_DOT":9.86e-6,"MEAN_MOTION_DDOT":0},{"OBJECT_NAME":"FENGYUN 1C DEB","OBJECT_ID":"1999-025KR","EPOCH":"2026-03-04T10:55:00.080256","MEAN_MOTION":14.24252055,"ECCENTRICITY":0.00750255,"INCLINATION":98.8567,"RA_OF_ASC_NODE":145.7105,"ARG_OF_PERICENTER":59.8659,"MEAN_ANOMALY":1.3237,"EPHEMERIS_TYPE":0,"CLASSIFICATION_TYPE":"U","NORAD_CAT_ID":29967,"ELEMENT_SET_NO":999,"REV_AT_EPOCH":98385,"BSTAR":0.001755364,"MEAN_MOTION_DOT":4.127e-5,"MEAN_MOTION_DDOT":0},{"OBJECT_NAME":"FENGYUN 1C DEB","OBJECT_ID":"1999-025KS","EPOCH":"2026-03-05T12:27:12.460608","MEAN_MOTION":14.0732029,"ECCENTRICITY":0.0090924,"INCLINATION":98.8134,"RA_OF_ASC_NODE":57.1757,"ARG_OF_PERICENTER":120.8587,"MEAN_ANOMALY":357.8698,"EPHEMERIS_TYPE":0,"CLASSIFICATION_TYPE":"U","NORAD_CAT_ID":29968,"ELEMENT_SET_NO":999,"REV_AT_EPOCH":98213,"BSTAR":0.00019268,"MEAN_MOTION_DOT":2.94e-6,"MEAN_MOTION_DDOT":0},{"OBJECT_NAME":"FENGYUN 1C DEB","OBJECT_ID":"1999-025KT","EPOCH":"2026-03-05T17:39:42.965280","MEAN_MOTION":14.34161685,"ECCENTRICITY":0.0044574,"INCLINATION":98.7635,"RA_OF_ASC_NODE":155.1487,"ARG_OF_PERICENTER":163.9439,"MEAN_ANOMALY":347.5934,"EPHEMERIS_TYPE":0,"CLASSIFICATION_TYPE":"U","NORAD_CAT_ID":29969,"ELEMENT_SET_NO":999,"REV_AT_EPOCH":98851,"BSTAR":0.0022377,"MEAN_MOTION_DOT":6.297e-5,"MEAN_MOTION_DDOT":0},{"OBJECT_NAME":"FENGYUN 1C DEB","OBJECT_ID":"1999-025KU","EPOCH":"2026-03-05T18:24:09.347040","MEAN_MOTION":14.44333823,"ECCENTRICITY":0.0089848,"INCLINATION":98.8149,"RA_OF_ASC_NODE":1.0371,"ARG_OF_PERICENTER":300.715,"MEAN_ANOMALY":91.181,"EPHEMERIS_TYPE":0,"CLASSIFICATION_TYPE":"U","NORAD_CAT_ID":29970,"ELEMENT_SET_NO":999,"REV_AT_EPOCH":319,"BSTAR":0.00084312,"MEAN_MOTION_DOT":2.998e-5,"MEAN_MOTION_DDOT":0},{"OBJECT_NAME":"FENGYUN 1C DEB","OBJECT_ID":"1999-025KV","EPOCH":"2026-03-05T14:31:57.072288","MEAN_MOTION":14.18491199,"ECCENTRICITY":0.0021757,"INCLINATION":98.6722,"RA_OF_ASC_NODE":107.5552,"ARG_OF_PERICENTER":291.4359,"MEAN_ANOMALY":197.53,"EPHEMERIS_TYPE":0,"CLASSIFICATION_TYPE":"U","NORAD_CAT_ID":29971,"ELEMENT_SET_NO":999,"REV_AT_EPOCH":98514,"BSTAR":0.00094776,"MEAN_MOTION_DOT":1.92e-5,"MEAN_MOTION_DDOT":0},{"OBJECT_NAME":"FENGYUN 1C DEB","OBJECT_ID":"1999-025KW","EPOCH":"2026-03-05T14:56:14.692128","MEAN_MOTION":14.67591148,"ECCENTRICITY":0.0064558,"INCLINATION":98.9167,"RA_OF_ASC_NODE":88.9594,"ARG_OF_PERICENTER":115.2665,"MEAN_ANOMALY":5.9629,"EPHEMERIS_TYPE":0,"CLASSIFICATION_TYPE":"U","NORAD_CAT_ID":29972,"ELEMENT_SET_NO":999,"REV_AT_EPOCH":699,"BSTAR":0.0012559,"MEAN_MOTION_DOT":7.306e-5,"MEAN_MOTION_DDOT":0}]
