FENGYUN 1C DEB          
1 29957U 99025KF  26064.33700947  .00021728  00000+0  50680-2 0  9998
2 29957  98.9188 201.5027 0034888 280.0280 112.5303 14.54382782986917
FENGYUN 1C DEB          
1 29958U 99025KG  26064.03472633  .00000640  00000+0  34999-3 0  9990
2 29958  98.6660  80.9862 0055914  97.0693 263.6844 14.14571573986140
FENGYUN 1C DEB          
1 29959U 99025KH  26064.63100242  .00000309  00000+0  21217-3 0  9992
2 29959  98.7982  97.9839 0043365  94.7022  32.4574 14.06064755981055
FENGYUN 1C DEB          
1 29960U 99025KJ  26064.43465535  .00001272  00000+0  63228-3 0  9999
2 29960  98.6248  52.3978 0092710  48.8980 103.6560 14.16561971986257
FENGYUN 1C DEB          
1 29961U 99025KK  26064.64740899  .00000503  00000+0  22198-3 0  9999
2 29961  98.9415 318.8048 0075683  64.9155 295.9854 14.26298021994915
FENGYUN 1C DEB          
1 29962U 99025KL  26064.62358865  .00000561  00000+0  34104-3 0  9990
2 29962  98.7691  75.3324 0109982 348.7378 137.5915 14.07220529981633
FENGYUN 1C DEB          
1 29963U 99025KM  26064.54597403  .00001617  00000+0  63854-3 0  9992
2 29963  98.9928 316.2104 0052414  61.2629  57.3417 14.29745006993269
FENGYUN 1C DEB          
1 29964U 99025KN  26064.55235276  .00001792  00000+0  10924-2 0  9994
2 29964  98.3717 265.4649 0131392  35.0363 325.9362 14.03006970974787
FENGYUN 1C DEB          
1 29965U 99025KP  26064.54425020 -.00000061  00000+0 -11841-4 0  9993
2 29965  98.9696  61.9798 0144803 200.0229 287.6732 13.95830933974318
FENGYUN 1C DEB          
1 29966U 99025KQ  26064.56010718  .00000986  00000+0  43146-3 0  9996
2 29966  99.4878 283.3307 0040096 108.7941 251.7592 14.25929232992239
FENGYUN 1C DEB          
1 29967U 99025KR  26063.45486204  .00004127  00000+0  17554-2 0  9995
2 29967  98.8567 145.7105 0075025  59.8659   1.3237 14.24252055983851
FENGYUN 1C DEB          
1 29968U 99025KS  26064.51889422  .00000294  00000+0  19268-3 0  9999
2 29968  98.8134  57.1757 0090924 120.8587 357.8698 14.07320290982133
FENGYUN 1C DEB          
1 29969U 99025KT  26064.73591395  .00006297  00000+0  22377-2 0  9996
2 29969  98.7635 155.1487 0044574 163.9439 347.5934 14.34161685988510
FENGYUN 1C DEB          
1 29970U 99025KU  26064.76677485  .00002998  00000+0  84312-3 0  9998
2 29970  98.8149   1.0371 0089848 300.7150  91.1810 14.44333823  3191
FENGYUN 1C DEB          
1 29971U 99025KV  26064.60552167  .00001920  00000+0  94776-3 0  9990
2 29971  98.6722 107.5552 0021757 291.4359 197.5300 14.18491199985143
FENGYUN 1C DEB          
1 29972U 99025KW  26064.62239227  .00007306  00000+0  12559-2 0  9994
2 29972  98.9167  88.9594 0064558 115.2665   5.9629 14.67591148  6999
